STARLINK-2065           
1 47672U 21012BE  26068.25173490  .00113313  00000+0  96340-3 0  9991
2 47672  53.1532  11.1448 0006678  48.9965 311.1629 15.68762860280792
STARLINK-11349 [DTC]    
1 61544U 24184N   26068.74231162  .00000431  00000+0  84192-5 0  9993
2 61544  53.1597 236.1429 0001137  72.1217 287.9924 15.69692548 80421
